IRNSS-1A----------------
1 39199U 13034A   19071.78390671  .00000096  00000-0  00000+0 0  9995
2 39199  29.9398 104.2969 0020646 188.9241 214.1594  1.00275753 21048
IRNSS-1B----------------
1 39635U 14017A   19071.71915823  .00000096  00000-0  00000+0 0  9997
2 39635  28.6878 284.7515 0018958 177.5331  21.6712  1.00271653 18190
IRNSS-1C----------------
1 40269U 14061A   19072.48712595 -.00000168  00000-0  00000+0 0  9998
2 40269   2.0354 215.7435 0018268  10.6447 202.8154  1.00269945 16220
IRNSS-1D----------------
1 40547U 15018A   19072.49297074 -.00000284  00000-0  00000+0 0  9990
2 40547  29.0134 284.8430 0019552 180.3230 354.6068  1.00261668 14646
IRNSS-1E----------------
1 41241U 16003A   19071.99049201 -.00000288  00000-0  00000+0 0  9992
2 41241  29.0900 103.8851 0020563 185.5614 349.2915  1.00273542 11599
IRNSS-1F----------------
1 41384U 16015A   19072.83604420  .00000150  00000-0  00000+0 0  9994
2 41384   2.8944 244.5202 0020678 175.3650  84.7878  1.00260711 11099
IRNSS-1G----------------
1 41469U 16027A   19072.85532333 -.00000344  00000-0  00000+0 0  9992
2 41469   2.9464 246.6472 0004797 169.9828 192.0245  1.00272745 10598
IRNSS-1I----------------
1 43286U 18035A   19072.19444954  .00000099  00000-0  00000+0 0  9996
2 43286  29.0820 117.2868 0021296 188.3828 349.9217  1.00274068  3463
